KUZGTU 1 (RS47S)        
1 57217U 23091AV  25175.55549758  .00005693  00000+0  26437-3 0  9992
2 57217  97.5580 232.8848 0011866 271.5151  88.4725 15.20356900109877
2023-103B               
1 57422U 23103B   25175.54870950  .00133031  73887-5  24165-3 0  9997
2 57422  96.4284 236.7442 0014886 102.5559 257.7389 16.01241196109975
FENGYUN 3F              
1 57490U 23111A   25175.49635702  .00000036  00000+0  37347-4 0  9995
2 57490  98.7267 246.3532 0002024  96.4280 263.7127 14.20048405 98102
HJ-2F                   
1 57519U 23116A   25175.54312638  .00005608  00000+0  24723-3 0  9991
2 57519  97.3846 182.2494 0003552 147.4527 212.6929 15.22190668104366
XRISM                   
1 57800U 23137A   25175.59156340  .00003247  00000+0  19912-3 0  9999
2 57800  31.0007 148.4266 0008084 325.6799  34.3316 15.08167719 98838
VERONIKA                
1 58261U 23174F   25175.53886709  .00128119  00000+0  86700-3 0  9990
2 58261  97.4116 262.6592 0002629 279.2906  80.8061 15.74645776 91036
GRBBETA                 
1 60237U 24128C   25175.04259047  .00002819  00000+0  21935-3 0  9998
2 60237  61.9921  29.1276 0053052  60.7860 299.8521 15.02745480 52376
2024-149A               
1 60468U 24149A   25175.47455119  .00004528  00000+0  18164-3 0  9991
2 60468  97.4077 252.7835 0005002  66.2287 293.9475 15.25488902 47396
WARATAH SEED-1          
1 60469U 24149B   25175.57755369  .00004720  00000+0  18804-3 0  9998
2 60469  97.4057 252.8927 0003786  74.6654 285.5002 15.25701704 47410
PHISAT 2                
1 60470U 24149C   25175.49751215  .00004505  00000+0  18602-3 0  9994
2 60470  97.4106 252.7214 0003313  81.8871 278.2742 15.24527117 47381
LEMUR-2-TOMATOKECHUP    
1 60471U 24149D   25175.49710703  .00005622  00000+0  21468-3 0  9997
2 60471  97.4129 253.4218 0003557  85.3587 274.8058 15.27035627 47422
CONNECTA IOT-1          
1 60472U 24149E   25175.47272215  .00003236  00000+0  14066-3 0  9992
2 60472  97.4110 252.3202 0003879  90.1793 269.9888 15.22989742 47353
LOPEN                   
1 60473U 24149F   25175.19117586  .00005664  00000+0  20915-3 0  9998
2 60473  97.4115 253.3233 0003475  95.3200 264.8436 15.28146465 47396
ROCK                    
1 60474U 24149G   25175.18516247  .00005810  00000+0  21413-3 0  9992
2 60474  97.4111 253.3269 0003456  94.7786 265.3848 15.28197616 47390
CONNECTA IOT-3          
1 60475U 24149H   25175.46681613  .00003300  00000+0  14155-3 0  9991
2 60475  97.4065 252.2799 0005620  86.5806 273.6074 15.23420921 47365
QUBE                    
1 60476U 24149J   25173.30362858  .00010164  00000+0  34627-3 0  9992
2 60476  97.4105 252.0188 0004234  92.8684 267.3041 15.30573018 47149
SATORO-T2               
1 60477U 24149K   25174.96120205  .00020884  00000+0  57934-3 0  9990
2 60477  97.4095 254.8801 0002682  93.7331 266.4220 15.36946796 47483
WREN-1                  
1 60478U 24149L   25174.89248207  .00004684  00000+0  16857-3 0  9995
2 60478  97.4094 253.4721 0007689 101.2937 258.9167 15.29066652 47389
TOMORROW-S1             
1 60479U 24149M   25175.58388874  .00003667  00000+0  14431-3 0  9994
2 60479  97.4080 253.2454 0004683  86.5545 273.6229 15.26257527 47436
FLOCK 4BE-18            
1 60480U 24149N   25175.20151615  .00005586  00000+0  20433-3 0  9997
2 60480  97.4075 253.3086 0006524  95.2422 264.9562 15.28447770 47404
FLOCK 4BE-7             
1 60481U 24149P   25175.47299990  .00005810  00000+0  21751-3 0  9990
2 60481  97.4103 253.5307 0005619  95.2534 264.9347 15.27673480 47435
FLOCK 4BE-4             
1 60482U 24149Q   25174.47329245  .00014832  00000+0  27002-3 0  9996
2 60482  97.4082 258.8912 0002826  71.3987 288.7571 15.49595272 47705
FLOCK 4BE-16            
1 60483U 24149R   25175.19579623  .00005448  00000+0  19939-3 0  9997
2 60483  97.4095 253.3914 0005059  95.3036 264.8781 15.28453557 47405
FLOCK 4BE-26            
1 60484U 24149S   25175.16324259  .00005699  00000+0  21126-3 0  9997
2 60484  97.4072 253.1676 0005952  97.0971 263.0945 15.28006884 47391
TOMORROW-S2             
1 60485U 24149T   25175.10224061  .00003669  00000+0  14532-3 0  9990
2 60485  97.4143 253.0649 0005036  96.4193 263.7619 15.26040567 47368
FLOCK 4BE-36            
1 60486U 24149U   25175.17689914  .00005784  00000+0  20648-3 0  9995
2 60486  97.4077 253.4796 0006660 102.0960 258.1027 15.29233238 47411
FLOCK 4BE-25            
1 60487U 24149V   25175.58511394  .00005270  00000+0  19793-3 0  9996
2 60487  97.4128 253.7660 0004808  93.6362 266.5427 15.27611265 47454
FLOCK 4BE-31            
1 60488U 24149W   25175.16070244  .00006616  00000+0  23467-3 0  9993
2 60488  97.4126 253.7154 0005400 100.6904 259.4944 15.29394495 47417
FLOCK 4BE-20            
1 60489U 24149X   25175.16561774  .00005349  00000+0  20324-3 0  9998
2 60489  97.4048 252.9430 0006290  99.2028 260.9923 15.27211110 47387
FLOCK 4BE-23            
1 60490U 24149Y   25175.20887572  .00005210  00000+0  19945-3 0  9996
2 60490  97.4119 253.1697 0005986 101.8851 258.3059 15.26975944 47383
FLOCK 4BE-15            
1 60491U 24149Z   25175.18208783  .00004723  00000+0  17466-3 0  9999
2 60491  97.4061 253.2360 0006299 100.5877 259.6072 15.28171323 47403
FLOCK 4BE-17            
1 60492U 24149AA  25175.58374818  .00005884  00000+0  21936-3 0  9993
2 60492  97.4120 253.7647 0005287  98.7111 261.4727 15.27808495 47457
NUSAT-50 (NANCY ROMAN)  
1 60493U 24149AB  25175.47616423  .00006092  00000+0  22475-3 0  9994
2 60493  97.4104 253.6738 0005910 101.3854 258.8050 15.28135894 47443
FLOCK 4BE-22            
1 60494U 24149AC  25175.18097177  .00005624  00000+0  20645-3 0  9999
2 60494  97.4073 253.2963 0006991 108.4054 251.7946 15.28327937 47408
FLOCK 4BE-34            
1 60495U 24149AD  25175.18911807  .00005728  00000+0  20443-3 0  9996
2 60495  97.4111 253.6362 0006365 111.8311 248.3607 15.29250488 47412
TYCHE                   
1 60496U 24149AE  25175.54653618  .00003253  00000+0  13885-3 0  9993
2 60496  97.4107 252.6701 0006258 109.4537 250.7377 15.23591298 47386
FLOCK 4BE-32            
1 60497U 24149AF  25175.17759984  .00005808  00000+0  21034-3 0  9999
2 60497  97.4057 253.3959 0006342 104.5139 255.6804 15.28763562 47415
NUSAT-48 (HENRIETTA LE*)
1 60498U 24149AG  25175.46939737  .00005859  00000+0  21663-3 0  9992
2 60498  97.4073 253.5488 0006616 109.2198 250.9758 15.28076233 47445
FLOCK 4BE-30            
1 60499U 24149AH  25175.18667285  .00005669  00000+0  20513-3 0  9990
2 60499  97.4134 253.6966 0005490 105.6948 254.4897 15.28804798 46793
NUSAT-49 (KLARA DAN VO*)
1 60500U 24149AJ  25175.46994940  .00005797  00000+0  21476-3 0  9996
2 60500  97.4101 253.6648 0005709 104.8369 255.3503 15.28016040 47440
FLOCK 4BE-11            
1 60501U 24149AK  25175.16870486  .00005941  00000+0  21333-3 0  9995
2 60501  97.4046 253.3962 0006740 108.8799 251.3173 15.29028424 47418
FLOCK 4BE-33            
1 60502U 24149AL  25175.17745131  .00005383  00000+0  20238-3 0  9998
2 60502  97.4063 253.1395 0006563 114.2017 245.9909 15.27557278 47398
FLOCK 4BE-10            
1 60503U 24149AM  25175.20668962  .00005571  00000+0  20673-3 0  9991
2 60503  97.4113 253.4738 0005233 110.2178 249.9624 15.27986502 47402
YAM-7                   
1 60504U 24149AN  25175.18690436  .00003855  00000+0  15514-3 0  9991
2 60504  97.4123 252.8805 0005469 115.1557 245.0248 15.25472692 47360
FLOCK 4BE-24            
1 60505U 24149AP  25175.17915623  .00006337  00000+0  22581-3 0  9999
2 60505  97.4057 253.5464 0006571 117.0507 243.1405 15.29257247 47429
LUR-1                   
1 60506U 24149AQ  25174.80499683  .00003995  00000+0  16786-3 0  9999
2 60506  97.4098 252.0887 0005995 123.1101 237.0712 15.23996983 47283
TANAGER-1               
1 60507U 24149AR  25175.17712251  .00014400  00000+0  32070-3 0  9997
2 60507  97.4045 259.4706 0008502 246.8212 113.2141 15.43686068 47801
EAGLEEYE                
1 60508U 24149AS  25175.19813484  .00009609  00000+0  28231-3 0  9999
2 60508  97.4081 254.9669 0005719 116.0873 244.0960 15.35322506 47513
FLOCK 4BE-29            
1 60509U 24149AT  25175.48585451  .00006529  00000+0  22732-3 0  9990
2 60509  97.4135 254.3651 0005062 122.5040 237.6690 15.30012017 47480
2024-149AU              
1 60510U 24149AU  25175.47312368  .00005953  00000+0  21435-3 0  9995
2 60510  97.4069 253.8171 0006013 120.5572 239.6262 15.28941442 47469
FLOCK 4BE-2             
1 60511U 24149AV  25175.21770127  .00006555  00000+0  22424-3 0  9997
2 60511  97.4140 254.2890 0005292 119.6865 240.4903 15.30584156 47454
FLOCK 4BE-13            
1 60512U 24149AW  25175.18733384  .00005558  00000+0  19567-3 0  9994
2 60512  97.4048 253.6592 0006820 115.2265 244.9683 15.29706703 47432
FLOCK 4BE-27            
1 60513U 24149AX  25175.49841165  .00005279  00000+0  20393-3 0  9995
2 60513  97.4149 253.6264 0006116 126.8677 233.3123 15.26670584 47439
FLOCK 4BE-9             
1 60514U 24149AY  25175.47570673  .00005766  00000+0  20914-3 0  9997
2 60514  97.4117 254.0155 0005217 125.1571 235.0158 15.28719676 47463
FLOCK 4BE-8             
1 60515U 24149AZ  25175.13094432  .00022648  00000+0  81450-3 0  9995
2 60515  97.4069 253.3491 0006279 125.8325 234.3499 15.28609604 47401
FLOCK 4BE-6             
1 60516U 24149BA  25175.48633764  .00006241  00000+0  23099-3 0  9997
2 60516  97.4121 253.8760 0005738 126.5477 233.6291 15.28016616 47452
FLOCK 4BE-14            
1 60517U 24149BB  25175.24927658  .00005824  00000+0  21099-3 0  9994
2 60517  97.4051 253.6233 0007151 125.9465 234.2439 15.28746368 47432
FLOCK 4BE-1             
1 60518U 24149BC  25175.17406742  .00006123  00000+0  21734-3 0  9992
2 60518  97.4110 253.9351 0006509 123.9948 236.1911 15.29400010 47431
FLOCK 4BE-28            
1 60519U 24149BD  25175.49216774  .00007151  00000+0  24588-3 0  9994
2 60519  97.4076 254.2799 0007284 125.9596 234.2321 15.30369223 47497
